APRIZESAT 2             
1 28366U 04025A   26187.41929845  .00000248  00000+0  89927-4 0  9994
2 28366  98.1032 352.3126 0105321 191.3344 168.5472 14.38044792154408
SAUDICOMSAT 1           
1 28369U 04025D   26187.47129271  .00000349  00000+0  91084-4 0  9997
2 28369  98.5772 198.1232 0031390 326.3968  33.5237 14.55489222166937
SAUDICOMSAT 2           
1 28370U 04025E   26187.03288923  .00000252  00000+0  76568-4 0  9994
2 28370  98.6639 199.8119 0054992 201.5272 158.3609 14.49991369162836
APRIZESAT 1             
1 28372U 04025G   26186.97233467  .00000309  00000+0  87820-4 0  9997
2 28372  98.6304 198.2090 0045784  98.0031 262.6362 14.51788427164636
NANOSAT-1               
1 28493U 04049B   26187.36757005  .00001136  00000+0  15674-3 0  9996
2 28493  98.2300 324.5001 0003137 215.9102 144.1899 14.80199384158286
SAUDICOMSAT 7           
1 31119U 07012C   26186.88103623  .00000640  00000+0  12319-3 0  9997
2 31119  98.3789 161.3963 0056569 136.8992 223.6661 14.66130004 25175
SAUDICOMSAT 6           
1 31121U 07012E   26187.38276183  .00000487  00000+0  10293-3 0  9996
2 31121  98.4109 155.2578 0070360 267.0527  92.2621 14.62579416 22998
SAUDICOMSAT 5           
1 31124U 07012H   26187.37352796  .00000789  00000+0  14377-3 0  9995
2 31124  98.3501 162.6419 0048633  65.9527 294.6756 14.68184267 26415
SAUDICOMSAT 3           
1 31125U 07012J   26186.89254617  .00000979  00000+0  16745-3 0  9997
2 31125  98.3154 162.6981 0038969 354.9556   5.1251 14.70739669 27576
SAUDICOMSAT 4           
1 31127U 07012L   26187.35327955  .00000477  00000+0  97227-4 0  9995
2 31127  98.3995 160.3158 0062933 197.4027 162.5019 14.64530212 24093
APRIZESAT 4             
1 35684U 09041D   26187.20521471  .00000761  00000+0  97266-4 0  9993
2 35684  98.1406 262.9045 0041915 259.5466 100.1023 14.83905551914182
APRIZESAT 3             
1 35686U 09041F   26187.35855158  .00001393  00000+0  12457-3 0  9993
2 35686  98.2082 341.5034 0061523   4.9011 355.2798 14.96292175919241
S-NET D                 
1 43186U 18014G   26187.26384849  .00005326  00000+0  27387-3 0  9999
2 43186  97.5340  91.9355 0006802 323.3476  36.7291 15.16863856461657
S-NET B                 
1 43187U 18014H   26187.27567552  .00005769  00000+0  29659-3 0  9990
2 43187  97.5345  91.9344 0007321 316.9087  43.1572 15.16833783461654
S-NET A                 
1 43188U 18014J   26187.26262046  .00005266  00000+0  27074-3 0  9991
2 43188  97.5356  92.1340 0007212 318.1163  41.9518 15.16872249461650
S-NET C                 
1 43189U 18014K   26187.27965072  .00005778  00000+0  29705-3 0  9993
2 43189  97.5373  92.2284 0008434 307.7137  52.3331 15.16825091460202
SALSAT                  
1 46495U 20068K   26187.43970818  .00007616  00000+0  26417-3 0  9990
2 46495  97.8859 191.6800 0008363 226.2294 133.8254 15.30088566318301
OOV-CUBE (TUBSAT-30)    
1 60240U 24128F   26187.28481457  .00002356  00000+0  18731-3 0  9990
2 60240  61.9939 158.9762 0042222 137.9809 222.4534 15.02849256108988
LPNTSAT-001 (IOD-1)     
1 68408U 26065A   26187.11977428  .00002928  00000+0  14431-3 0  9994
2 68408  97.3993  67.2275 0014882 301.7176  58.2608 15.18638442 15136
